{
    "type": "FeatureCollection",
    "features": [
        {
            "type": "Feature",
            "geometry": {
                "type": "Point",
                "coordinates": [-97.1, 31.5]
            },
            "properties": {
                "NAME": "Waco",
                "BENEFIT_PROGRM": "Big Top Smiles",
                "BENEFIT_SBPRGRM": "Subprogram Clowns",
                "IN_PROGRAM_NETWORK": 0,
                "MCO_DMO_NM": "MCO Juggler",
                "ID": 1111111,
                "PROV_SUPERTYPE": "Type Acrobat"
            }
        },
        {
            "type": "Feature",
            "geometry": {
                "type": "Point",
                "coordinates": [-96.3, 33.1]
            },
            "properties": {
                "NAME": "Sherman",
                "BENEFIT_PROGRM": "Cheddar Laughs",
                "BENEFIT_SBPRGRM": "Subprogram Gouda",
                "IN_PROGRAM_NETWORK": 0,
                "MCO_DMO_NM": "MCO Brie",
                "ID": 2222222,
                "PROV_SUPERTYPE": "Type Swiss"
            }
        },
        {
            "type": "Feature",
            "geometry": {
                "type": "Point",
                "coordinates": [-95.7, 30.6]
            },
            "properties": {
                "NAME": "Conroe",
                "BENEFIT_PROGRM": "Circus Joy",
                "BENEFIT_SBPRGRM": "Subprogram Trapeze",
                "IN_PROGRAM_NETWORK": 0,
                "MCO_DMO_NM": "MCO Ringmaster",
                "ID": 3333333,
                "PROV_SUPERTYPE": "Type Clown"
            }
        },
        {
            "type": "Feature",
            "geometry": {
                "type": "Point",
                "coordinates": [-99.2, 28.7]
            },
            "properties": {
                "NAME": "Uvalde",
                "BENEFIT_PROGRM": "Cheese Delight",
                "BENEFIT_SBPRGRM": "Subprogram Mozzarella",
                "IN_PROGRAM_NETWORK": 0,
                "MCO_DMO_NM": "MCO Parmesan",
                "ID": 4444444,
                "PROV_SUPERTYPE": "Type Ricotta"
            }
        },
        {
            "type": "Feature",
            "geometry": {
                "type": "Point",
                "coordinates": [-96.5, 27.9]
            },
            "properties": {
                "NAME": "Port Lavaca",
                "BENEFIT_PROGRM": "Carnival Grins",
                "BENEFIT_SBPRGRM": "Subprogram Tightrope",
                "IN_PROGRAM_NETWORK": 0,
                "MCO_DMO_NM": "MCO Elephant",
                "ID": 5555555,
                "PROV_SUPERTYPE": "Type Ringmaster"
            }
        },
        {
            "type": "Feature",
            "geometry": {
                "type": "Point",
                "coordinates": [-101.5, 34.8]
            },
            "properties": {
                "NAME": "Canyon",
                "BENEFIT_PROGRM": "Cheese Smiles",
                "BENEFIT_SBPRGRM": "Subprogram Havarti",
                "IN_PROGRAM_NETWORK": 0,
                "MCO_DMO_NM": "MCO Camembert",
                "ID": 6666666,
                "PROV_SUPERTYPE": "Type Feta"
            }
        },
        {
            "type": "Feature",
            "geometry": {
                "type": "Point",
                "coordinates": [-100.2, 32.3]
            },
            "properties": {
                "NAME": "Sweetwater",
                "BENEFIT_PROGRM": "Circus Fun",
                "BENEFIT_SBPRGRM": "Subprogram Lions",
                "IN_PROGRAM_NETWORK": 0,
                "MCO_DMO_NM": "MCO Tent",
                "ID": 7777777,
                "PROV_SUPERTYPE": "Type Acrobat"
            }
        },
        {
            "type": "Feature",
            "geometry": {
                "type": "Point",
                "coordinates": [-96.8, 33.6]
            },
            "properties": {
                "NAME": "Gainesville",
                "BENEFIT_PROGRM": "Cheddar Joy",
                "BENEFIT_SBPRGRM": "Subprogram Blue Cheese",
                "IN_PROGRAM_NETWORK": 0,
                "MCO_DMO_NM": "MCO Gouda",
                "ID": 8888888,
                "PROV_SUPERTYPE": "Type Brie"
            }
        },
        {
            "type": "Feature",
            "geometry": {
                "type": "Point",
                "coordinates": [-102.5, 31.4]
            },
            "properties": {
                "NAME": "Midland",
                "BENEFIT_PROGRM": "Big Top Laughs",
                "BENEFIT_SBPRGRM": "Subprogram Jugglers",
                "IN_PROGRAM_NETWORK": 0,
                "MCO_DMO_NM": "MCO Clown",
                "ID": 9999999,
                "PROV_SUPERTYPE": "Type Tent"
            }
        },
        {
            "type": "Feature",
            "geometry": {
                "type": "Point",
                "coordinates": [-94.3, 31.6]
            },
            "properties": {
                "NAME": "Lufkin",
                "BENEFIT_PROGRM": "Cheese Carnival",
                "BENEFIT_SBPRGRM": "Subprogram Provolone",
                "IN_PROGRAM_NETWORK": 0,
                "MCO_DMO_NM": "MCO Cheddar",
                "ID": 1010101,
                "PROV_SUPERTYPE": "Type Swiss"
            }
        }
    ]
}
