[
    {
        "type": "FeatureCollection",
        "features": [
            {
                "type": "Feature",
                "geometry": {
                    "type": "Point",
                    "coordinates": [-97.7431, 30.2672]
                },
                "properties": {
                    "PERIOD": "Austin",
                    "BENEFIT_PROGRM": "Lone Star Laughs",
                    "BENEFIT_SBPRGRM": "Subprogram Chuckles",
                    "IN_PROGRAM_NETWORK": 1,
                    "MCO_DMO_NM": "MCO Giggles",
                    "ID": 1234567,
                    "PROV_SUPERTYPE": "Type Haha"
                }
            },
            {
                "type": "Feature",
                "geometry": {
                    "type": "Point",
                    "coordinates": [-96.7969, 32.7767]
                },
                "properties": {
                    "PERIOD": "Dallas",
                    "BENEFIT_PROGRM": "Big D Belly Laughs",
                    "BENEFIT_SBPRGRM": "Subprogram Snickers",
                    "IN_PROGRAM_NETWORK": 1,
                    "MCO_DMO_NM": "MCO Chuckles",
                    "ID": 2345678,
                    "PROV_SUPERTYPE": "Type LOL"
                }
            },
            {
                "type": "Feature",
                "geometry": {
                    "type": "Point",
                    "coordinates": [-95.3698, 29.7604]
                },
                "properties": {
                    "PERIOD": "Houston",
                    "BENEFIT_PROGRM": "Space City Smiles",
                    "BENEFIT_SBPRGRM": "Subprogram Giggles",
                    "IN_PROGRAM_NETWORK": 1,
                    "MCO_DMO_NM": "MCO Haha",
                    "ID": 3456789,
                    "PROV_SUPERTYPE": "Type ROFL"
                }
            },
            {
                "type": "Feature",
                "geometry": {
                    "type": "Point",
                    "coordinates": [-98.4936, 29.4241]
                },
                "properties": {
                    "PERIOD": "San Antonio",
                    "BENEFIT_PROGRM": "Alamo Amusement",
                    "BENEFIT_SBPRGRM": "Subprogram Grins",
                    "IN_PROGRAM_NETWORK": 1,
                    "MCO_DMO_NM": "MCO Smiles",
                    "ID": 4567890,
                    "PROV_SUPERTYPE": "Type Snort"
                }
            },
            {
                "type": "Feature",
                "geometry": {
                    "type": "Point",
                    "coordinates": [-97.3964, 27.8006]
                },
                "properties": {
                    "PERIOD": "Corpus Christi",
                    "BENEFIT_PROGRM": "Coastal Cackles",
                    "BENEFIT_SBPRGRM": "Subprogram Chuckles",
                    "IN_PROGRAM_NETWORK": 1,
                    "MCO_DMO_NM": "MCO ROFL",
                    "ID": 5678901,
                    "PROV_SUPERTYPE": "Type Teehee"
                }
            },
            {
                "type": "Feature",
                "geometry": {
                    "type": "Point",
                    "coordinates": [-101.8313, 35.221]
                },
                "properties": {
                    "PERIOD": "Amarillo",
                    "BENEFIT_PROGRM": "Panhandle Puns",
                    "BENEFIT_SBPRGRM": "Subprogram LOL",
                    "IN_PROGRAM_NETWORK": 1,
                    "MCO_DMO_NM": "MCO Snickers",
                    "ID": 6789012,
                    "PROV_SUPERTYPE": "Type Giggle"
                }
            },
            {
                "type": "Feature",
                "geometry": {
                    "type": "Point",
                    "coordinates": [-100.496, 31.4638]
                },
                "properties": {
                    "PERIOD": "San Angelo",
                    "BENEFIT_PROGRM": "West Texas Wit",
                    "BENEFIT_SBPRGRM": "Subprogram Grins",
                    "IN_PROGRAM_NETWORK": 1,
                    "MCO_DMO_NM": "MCO Teehee",
                    "ID": 7890123,
                    "PROV_SUPERTYPE": "Type Haha"
                }
            },
            {
                "type": "Feature",
                "geometry": {
                    "type": "Point",
                    "coordinates": [-97.0586, 33.2148]
                },
                "properties": {
                    "PERIOD": "Denton",
                    "BENEFIT_PROGRM": "North Texas Nonsense",
                    "BENEFIT_SBPRGRM": "Subprogram Snickers",
                    "IN_PROGRAM_NETWORK": 1,
                    "MCO_DMO_NM": "MCO Grins",
                    "ID": 8901234,
                    "PROV_SUPERTYPE": "Type ROFL"
                }
            },
            {
                "type": "Feature",
                "geometry": {
                    "type": "Point",
                    "coordinates": [-102.0779, 31.8457]
                },
                "properties": {
                    "PERIOD": "Odessa",
                    "BENEFIT_PROGRM": "Oilfield Oddities",
                    "BENEFIT_SBPRGRM": "Subprogram Chuckles",
                    "IN_PROGRAM_NETWORK": 1,
                    "MCO_DMO_NM": "MCO LOL",
                    "ID": 9012345,
                    "PROV_SUPERTYPE": "Type Snort"
                }
            },
            {
                "type": "Feature",
                "geometry": {
                    "type": "Point",
                    "coordinates": [-94.7977, 32.5007]
                },
                "properties": {
                    "PERIOD": "Longview",
                    "BENEFIT_PROGRM": "Piney Woods Puns",
                    "BENEFIT_SBPRGRM": "Subprogram Giggles",
                    "IN_PROGRAM_NETWORK": 1,
                    "MCO_DMO_NM": "MCO Haha",
                    "ID": 1234560,
                    "PROV_SUPERTYPE": "Type Teehee"
                }
            }
        ]
    },
    {
        "type": "FeatureCollection",
        "features": [
            {
                "type": "Feature",
                "geometry": {
                    "type": "Point",
                    "coordinates": [-97.1, 31.5]
                },
                "properties": {
                    "PERIOD": "Waco",
                    "BENEFIT_PROGRM": "Big Top Smiles",
                    "BENEFIT_SBPRGRM": "Subprogram Clowns",
                    "IN_PROGRAM_NETWORK": 0,
                    "MCO_DMO_NM": "MCO Juggler",
                    "ID": 1111111,
                    "PROV_SUPERTYPE": "Type Acrobat"
                }
            },
            {
                "type": "Feature",
                "geometry": {
                    "type": "Point",
                    "coordinates": [-96.3, 33.1]
                },
                "properties": {
                    "PERIOD": "Sherman",
                    "BENEFIT_PROGRM": "Cheddar Laughs",
                    "BENEFIT_SBPRGRM": "Subprogram Gouda",
                    "IN_PROGRAM_NETWORK": 0,
                    "MCO_DMO_NM": "MCO Brie",
                    "ID": 2222222,
                    "PROV_SUPERTYPE": "Type Swiss"
                }
            },
            {
                "type": "Feature",
                "geometry": {
                    "type": "Point",
                    "coordinates": [-95.7, 30.6]
                },
                "properties": {
                    "PERIOD": "Conroe",
                    "BENEFIT_PROGRM": "Circus Joy",
                    "BENEFIT_SBPRGRM": "Subprogram Trapeze",
                    "IN_PROGRAM_NETWORK": 0,
                    "MCO_DMO_NM": "MCO Ringmaster",
                    "ID": 3333333,
                    "PROV_SUPERTYPE": "Type Clown"
                }
            },
            {
                "type": "Feature",
                "geometry": {
                    "type": "Point",
                    "coordinates": [-99.2, 28.7]
                },
                "properties": {
                    "PERIOD": "Uvalde",
                    "BENEFIT_PROGRM": "Cheese Delight",
                    "BENEFIT_SBPRGRM": "Subprogram Mozzarella",
                    "IN_PROGRAM_NETWORK": 0,
                    "MCO_DMO_NM": "MCO Parmesan",
                    "ID": 4444444,
                    "PROV_SUPERTYPE": "Type Ricotta"
                }
            },
            {
                "type": "Feature",
                "geometry": {
                    "type": "Point",
                    "coordinates": [-96.629, 28.614]
                },
                "properties": {
                    "PERIOD": "Port Lavaca",
                    "BENEFIT_PROGRM": "Carnival Grins",
                    "BENEFIT_SBPRGRM": "Subprogram Tightrope",
                    "IN_PROGRAM_NETWORK": 0,
                    "MCO_DMO_NM": "MCO Elephant",
                    "ID": 5555555,
                    "PROV_SUPERTYPE": "Type Ringmaster"
                }
            },
            {
                "type": "Feature",
                "geometry": {
                    "type": "Point",
                    "coordinates": [-101.5, 34.8]
                },
                "properties": {
                    "PERIOD": "Canyon",
                    "BENEFIT_PROGRM": "Cheese Smiles",
                    "BENEFIT_SBPRGRM": "Subprogram Havarti",
                    "IN_PROGRAM_NETWORK": 0,
                    "MCO_DMO_NM": "MCO Camembert",
                    "ID": 6666666,
                    "PROV_SUPERTYPE": "Type Feta"
                }
            },
            {
                "type": "Feature",
                "geometry": {
                    "type": "Point",
                    "coordinates": [-100.2, 32.3]
                },
                "properties": {
                    "PERIOD": "Sweetwater",
                    "BENEFIT_PROGRM": "Circus Fun",
                    "BENEFIT_SBPRGRM": "Subprogram Lions",
                    "IN_PROGRAM_NETWORK": 0,
                    "MCO_DMO_NM": "MCO Tent",
                    "ID": 7777777,
                    "PROV_SUPERTYPE": "Type Acrobat"
                }
            },
            {
                "type": "Feature",
                "geometry": {
                    "type": "Point",
                    "coordinates": [-96.8, 33.6]
                },
                "properties": {
                    "PERIOD": "Gainesville",
                    "BENEFIT_PROGRM": "Cheddar Joy",
                    "BENEFIT_SBPRGRM": "Subprogram Blue Cheese",
                    "IN_PROGRAM_NETWORK": 0,
                    "MCO_DMO_NM": "MCO Gouda",
                    "ID": 8888888,
                    "PROV_SUPERTYPE": "Type Brie"
                }
            },
            {
                "type": "Feature",
                "geometry": {
                    "type": "Point",
                    "coordinates": [-102.5, 31.4]
                },
                "properties": {
                    "PERIOD": "Midland",
                    "BENEFIT_PROGRM": "Big Top Laughs",
                    "BENEFIT_SBPRGRM": "Subprogram Jugglers",
                    "IN_PROGRAM_NETWORK": 0,
                    "MCO_DMO_NM": "MCO Clown",
                    "ID": 9999999,
                    "PROV_SUPERTYPE": "Type Tent"
                }
            },
            {
                "type": "Feature",
                "geometry": {
                    "type": "Point",
                    "coordinates": [-94.3, 31.6]
                },
                "properties": {
                    "PERIOD": "Lufkin",
                    "BENEFIT_PROGRM": "Cheese Carnival",
                    "BENEFIT_SBPRGRM": "Subprogram Provolone",
                    "IN_PROGRAM_NETWORK": 0,
                    "MCO_DMO_NM": "MCO Cheddar",
                    "ID": 1010101,
                    "PROV_SUPERTYPE": "Type Swiss"
                }
            }
        ]
    }
]
